[
    {
        "Altitude(m)": 559159.3368411626,
        "Argument of Periapsis(deg)": 0.013245982221427002,
        "Eccentricity": 0.0,
        "Inclination(deg)": 53.0,
        "Latitude(deg)": 49.91508380527014,
        "Longitude(deg)": -113.64603152628912,
        "Mean Anomaly(deg)": 72.91048573515519,
        "RAAN(deg)": 284.980286737056,
        "Satellite Name": "Starlink Shell 1 1257",
        "Satellite Number": 1257,
        "Semi-Major Axis(m)": 6931778.249405717,
        "Time(s)": 380
    },
    {
        "Altitude(m)": 559210.8290911594,
        "Argument of Periapsis(deg)": 0.013594560700938237,
        "Eccentricity": 0.0,
        "Inclination(deg)": 53.0,
        "Latitude(deg)": 50.13952529375048,
        "Longitude(deg)": -112.77854159030582,
        "Mean Anomaly(deg)": 73.53731693871188,
        "RAAN(deg)": 284.97976796697856,
        "Satellite Name": "Starlink Shell 1 1257",
        "Satellite Number": 1257,
        "Semi-Major Axis(m)": 6931778.249405717,
        "Time(s)": 390
    },
    {
        "Altitude(m)": 559260.6675296354,
        "Argument of Periapsis(deg)": 0.013943139180449475,
        "Eccentricity": 0.0,
        "Inclination(deg)": 53.0,
        "Latitude(deg)": 50.35678399628594,
        "Longitude(deg)": -111.90265287349767,
        "Mean Anomaly(deg)": 74.16414814226859,
        "RAAN(deg)": 284.97924919690104,
        "Satellite Name": "Starlink Shell 1 1257",
        "Satellite Number": 1257,
        "Semi-Major Axis(m)": 6931778.249405717,
        "Time(s)": 400
    },
    {
        "Altitude(m)": 559308.8219148455,
        "Argument of Periapsis(deg)": 0.014291717659960712,
        "Eccentricity": 0.0,
        "Inclination(deg)": 53.0,
        "Latitude(deg)": 50.566739426209985,
        "Longitude(deg)": -111.01850265725837,
        "Mean Anomaly(deg)": 74.79097934582533,
        "RAAN(deg)": 284.97873042682363,
        "Satellite Name": "Starlink Shell 1 1257",
        "Satellite Number": 1257,
        "Semi-Major Axis(m)": 6931778.249405717,
        "Time(s)": 410
    },
    {
        "Altitude(m)": 559355.263057812,
        "Argument of Periapsis(deg)": 0.014640296139471948,
        "Eccentricity": 0.0,
        "Inclination(deg)": 53.0,
        "Latitude(deg)": 50.769272638261064,
        "Longitude(deg)": -110.12624448201801,
        "Mean Anomaly(deg)": -284.58218945061793,
        "RAAN(deg)": 284.9782116567461,
        "Satellite Name": "Starlink Shell 1 1257",
        "Satellite Number": 1257,
        "Semi-Major Axis(m)": 6931778.249405717,
        "Time(s)": 420
    },
    {
        "Altitude(m)": 559399.9628366457,
        "Argument of Periapsis(deg)": 0.014988874618983185,
        "Eccentricity": 0.0,
        "Inclination(deg)": 53.0,
        "Latitude(deg)": 50.96426649228698,
        "Longitude(deg)": -109.22604790391792,
        "Mean Anomaly(deg)": -283.95535824706127,
        "RAAN(deg)": 284.97769288666865,
        "Satellite Name": "Starlink Shell 1 1257",
        "Satellite Number": 1257,
        "Semi-Major Axis(m)": 6931778.249405717,
        "Time(s)": 430
    },
    {
        "Altitude(m)": 559442.8942103407,
        "Argument of Periapsis(deg)": 0.015337453098494424,
        "Eccentricity": 0.0,
        "Inclination(deg)": 53.0,
        "Latitude(deg)": 51.1516059238403,
        "Longitude(deg)": -108.31809819464466,
        "Mean Anomaly(deg)": -283.32852704350455,
        "RAAN(deg)": 284.97717411659124,
        "Satellite Name": "Starlink Shell 1 1257",
        "Satellite Number": 1257,
        "Semi-Major Axis(m)": 6931778.249405717,
        "Time(s)": 440
    },
    {
        "Altitude(m)": 559484.0312320208,
        "Argument of Periapsis(deg)": 0.01568603157800566,
        "Eccentricity": 0.0,
        "Inclination(deg)": 53.0,
        "Latitude(deg)": 51.33117822061264,
        "Longitude(deg)": -107.40259749228811,
        "Mean Anomaly(deg)": -282.70169583994783,
        "RAAN(deg)": 284.9766553465137,
        "Satellite Name": "Starlink Shell 1 1257",
        "Satellite Number": 1257,
        "Semi-Major Axis(m)": 6931778.249405717,
        "Time(s)": 450
    },
    {
        "Altitude(m)": 559523.3490616352,
        "Argument of Periapsis(deg)": 0.0160346100575169,
        "Eccentricity": 0.0,
        "Inclination(deg)": 53.0,
        "Latitude(deg)": 51.50287330353681,
        "Longitude(deg)": -106.47976437269425,
        "Mean Anomaly(deg)": -282.0748646363911,
        "RAAN(deg)": 284.9761365764362,
        "Satellite Name": "Starlink Shell 1 1257",
        "Satellite Number": 1257,
        "Semi-Major Axis(m)": 6931778.249405717,
        "Time(s)": 460
    },
    {
        "Altitude(m)": 559560.8239781323,
        "Argument of Periapsis(deg)": 0.016383188537028134,
        "Eccentricity": 0.0,
        "Inclination(deg)": 53.0,
        "Latitude(deg)": 51.666584011273336,
        "Longitude(deg)": -105.54983334969936,
        "Mean Anomaly(deg)": -281.4480334328344,
        "RAAN(deg)": 284.9756178063588,
        "Satellite Name": "Starlink Shell 1 1257",
        "Satellite Number": 1257,
        "Semi-Major Axis(m)": 6931778.249405717,
        "Time(s)": 470
    },
    {
        "Altitude(m)": 559596.4333910603,
        "Argument of Periapsis(deg)": 0.01673176701653937,
        "Eccentricity": 0.0,
        "Inclination(deg)": 53.0,
        "Latitude(deg)": 51.8222063866913,
        "Longitude(deg)": -104.61305581300202,
        "Mean Anomaly(deg)": -280.82120222927773,
        "RAAN(deg)": 284.9750990362813,
        "Satellite Name": "Starlink Shell 1 1257",
        "Satellite Number": 1257,
        "Semi-Major Axis(m)": 6931778.249405717,
        "Time(s)": 480
    },
    {
        "Altitude(m)": 559630.1558515974,
        "Argument of Periapsis(deg)": 0.017080345496050607,
        "Eccentricity": 0.0,
        "Inclination(deg)": 53.0,
        "Latitude(deg)": 51.96963996384748,
        "Longitude(deg)": -103.66969937429363,
        "Mean Anomaly(deg)": -280.19437102572095,
        "RAAN(deg)": 284.9745802662038,
        "Satellite Name": "Starlink Shell 1 1257",
        "Satellite Number": 1257,
        "Semi-Major Axis(m)": 6931778.249405717,
        "Time(s)": 490
    },
    {
        "Altitude(m)": 559661.9710630521,
        "Argument of Periapsis(deg)": 0.017428923975561842,
        "Eccentricity": 0.0,
        "Inclination(deg)": 53.0,
        "Latitude(deg)": 52.10878805388212,
        "Longitude(deg)": -102.72004713141519,
        "Mean Anomaly(deg)": -279.56753982216424,
        "RAAN(deg)": 284.97406149612635,
        "Satellite Name": "Starlink Shell 1 1257",
        "Satellite Number": 1257,
        "Semi-Major Axis(m)": 6931778.249405717,
        "Time(s)": 500
    },
    {
        "Altitude(m)": 559691.8598907647,
        "Argument of Periapsis(deg)": 0.01777750245507308,
        "Eccentricity": 0.0,
        "Inclination(deg)": 53.0,
        "Latitude(deg)": 52.239558028169384,
        "Longitude(deg)": -101.7643983609319,
        "Mean Anomaly(deg)": -278.9407086186075,
        "RAAN(deg)": 284.9735427260489,
        "Satellite Name": "Starlink Shell 1 1257",
        "Satellite Number": 1257,
        "Semi-Major Axis(m)": 6931778.249405717,
        "Time(s)": 510
    },
    {
        "Altitude(m)": 559719.8043714559,
        "Argument of Periapsis(deg)": 0.018126080934584315,
        "Eccentricity": 0.0,
        "Inclination(deg)": 53.0,
        "Latitude(deg)": 52.36186159698188,
        "Longitude(deg)": -100.80306761169903,
        "Mean Anomaly(deg)": -278.3138774150508,
        "RAAN(deg)": 284.97302395597137,
        "Satellite Name": "Starlink Shell 1 1257",
        "Satellite Number": 1257,
        "Semi-Major Axis(m)": 6931778.249405717,
        "Time(s)": 520
    },
    {
        "Altitude(m)": 559745.7877220007,
        "Argument of Periapsis(deg)": 0.018474659414095554,
        "Eccentricity": 0.0,
        "Inclination(deg)": 53.0,
        "Latitude(deg)": 52.475615081957585,
        "Longitude(deg)": -99.83638371073704,
        "Mean Anomaly(deg)": -277.68704621149413,
        "RAAN(deg)": 284.97250518589397,
        "Satellite Name": "Starlink Shell 1 1257",
        "Satellite Number": 1257,
        "Semi-Major Axis(m)": 6931778.249405717,
        "Time(s)": 530
    },
    {
        "Altitude(m)": 559769.7943475861,
        "Argument of Periapsis(deg)": 0.018823237893606792,
        "Eccentricity": 0.0,
        "Inclination(deg)": 53.0,
        "Latitude(deg)": 52.580739680394196,
        "Longitude(deg)": -98.86469019549222,
        "Mean Anomaly(deg)": -277.06021500793736,
        "RAAN(deg)": 284.97198641581645,
        "Satellite Name": "Starlink Shell 1 1257",
        "Satellite Number": 1257,
        "Semi-Major Axis(m)": 6931778.249405717,
        "Time(s)": 540
    },
    {
        "Altitude(m)": 559791.8098493594,
        "Argument of Periapsis(deg)": 0.019171816373118027,
        "Eccentricity": 0.0,
        "Inclination(deg)": 53.0,
        "Latitude(deg)": 52.67716171978018,
        "Longitude(deg)": -97.88834414551721,
        "Mean Anomaly(deg)": -276.4333838043807,
        "RAAN(deg)": 284.971467645739,
        "Satellite Name": "Starlink Shell 1 1257",
        "Satellite Number": 1257,
        "Semi-Major Axis(m)": 6931778.249405717,
        "Time(s)": 550
    },
    {
        "Altitude(m)": 559811.8210314099,
        "Argument of Periapsis(deg)": 0.019520394852629266,
        "Eccentricity": 0.0,
        "Inclination(deg)": 53.0,
        "Latitude(deg)": 52.76481290056766,
        "Longitude(deg)": -96.90771492953446,
        "Mean Anomaly(deg)": -275.8065526008239,
        "RAAN(deg)": 284.9709488756615,
        "Satellite Name": "Starlink Shell 1 1257",
        "Satellite Number": 1257,
        "Semi-Major Axis(m)": 6931778.249405717,
        "Time(s)": 560
    }
]